0 METEOR 2-5 DEB
1 29035U 79095M   13281.61795135  .00070827  00000-0  50904-2 0  5801
2 29035 081.1770 028.9024 0014679 250.8186 109.1407 15.03843570496138
0 METEOR 2-5 DEB
1 29035U 79095M   13284.61168198  .00084576  00000-0  59623-2 0  5811
2 29035 081.1360 025.4726 0020783 289.6052 071.7438 15.04413425496589
0 METEOR 2-5 DEB
1 29035U 79095M   13286.60653198  .00093293  00000-0  64927-2 0  5821
2 29035 081.1617 023.2114 0021487 352.7510 007.7796 15.04839514496884
0 METEOR 2-5 DEB
1 29035U 79095M   13287.00539553  .00093718  00000-0  65309-2 0  5832
2 29035 081.1912 022.7825 0011650 018.7790 341.4903 15.04917438496942
0 METEOR 2-5 DEB
1 29035U 79095M   13291.52536825  .00118169  00000-0  79454-2 0  5848
2 29035 081.1426 017.5364 0017960 267.7589 095.7652 15.06055409497623
0 METEOR 2-5 DEB
1 29035U 79095M   13295.50980278  .00122515  00000-0  80338-2 0  5859
2 29035 081.1625 013.0213 0012204 215.4924 144.9870 15.07031908498222
